start=new Date('2023-02-05T00:00:00.000Z').valueOf();
sats=[{"OBJECT_TYPE":"PAYLOAD","MEAN_MOTION_DDOT":"0.0000000000000","ECCENTRICITY":"0.00012840","MEAN_MOTION_DOT":"0.00016785","COUNTRY_CODE":"US","MEAN_ANOMALY":"270.2665","FILE":"3771952","SITE":"AFETR","SEMIMAJOR_AXIS":"6917.713","OBJECT_NAME":"STARLINK-4046","EPOCH":"2023-02-04T11:44:39.090912","DECAY_DATE":null,"PERIAPSIS":"538.690","INCLINATION":"53.2136","REF_FRAME":"TEME","ARG_OF_PERICENTER":"89.8474","MEAN_MOTION":"15.08894811","TLE_LINE2":"2 52842  53.2136  63.3083 0001284  89.8474 270.2665 15.08894811 35316","CENTER_NAME":"EARTH","REV_AT_EPOCH":"3531","OBJECT_ID":"2022-062N","RCS_SIZE":"LARGE","PERIOD":"95.434","TIME_SYSTEM":"UTC","BSTAR":"0.00106860000000","MEAN_ELEMENT_THEORY":"SGP4","ELEMENT_SET_NO":"999","EPHEMERIS_TYPE":"0","CLASSIFICATION_TYPE":"U","APOAPSIS":"540.466","LAUNCH_DATE":"2022-06-17","GP_ID":"224403346","TLE_LINE1":"1 52842U 22062N   23035.48934133  .00016785  00000-0  10686-2 0  9991","RA_OF_ASC_NODE":"63.3083","NORAD_CAT_ID":"52842"},{"TLE_LINE2":"2 52843  53.2164  61.9477 0001450  80.7331 279.3825 15.08844706 35367","MEAN_MOTION":"15.08844706","INCLINATION":"53.2164","DECAY_DATE":null,"PERIAPSIS":"538.728","ARG_OF_PERICENTER":"80.7331","REF_FRAME":"TEME","EPOCH":"2023-02-04T18:59:13.332192","OBJECT_NAME":"STARLINK-4188","SEMIMAJOR_AXIS":"6917.866","SITE":"AFETR","FILE":"3772514","MEAN_ANOMALY":"279.3825","COUNTRY_CODE":"US","MEAN_MOTION_DOT":"0.00001198","ECCENTRICITY":"0.00014500","MEAN_MOTION_DDOT":"0.0000000000000","OBJECT_TYPE":"PAYLOAD","NORAD_CAT_ID":"52843","RA_OF_ASC_NODE":"61.9477","TLE_LINE1":"1 52843U 22062P   23035.79112653  .00001198  00000-0  93331-4 0  9993","GP_ID":"224442759","APOAPSIS":"540.734","LAUNCH_DATE":"2022-06-17","EPHEMERIS_TYPE":"0","ELEMENT_SET_NO":"999","CLASSIFICATION_TYPE":"U","MEAN_ELEMENT_THEORY":"SGP4","BSTAR":"0.00009333100000","TIME_SYSTEM":"UTC","PERIOD":"95.437","RCS_SIZE":"LARGE","OBJECT_ID":"2022-062P","CENTER_NAME":"EARTH","REV_AT_EPOCH":"3536"},{"APOAPSIS":"540.658","LAUNCH_DATE":"2022-06-17","ELEMENT_SET_NO":"999","EPHEMERIS_TYPE":"0","CLASSIFICATION_TYPE":"U","NORAD_CAT_ID":"52844","TLE_LINE1":"1 52844U 22062Q   23035.80584106  .00002007  00000-0  14415-3 0  9997","RA_OF_ASC_NODE":"61.8846","GP_ID":"224442494","MEAN_ELEMENT_THEORY":"SGP4","TIME_SYSTEM":"UTC","BSTAR":"0.00014415000000","PERIOD":"95.437","OBJECT_ID":"2022-062Q","RCS_SIZE":"LARGE","REV_AT_EPOCH":"3536","CENTER_NAME":"EARTH","EPOCH":"2023-02-04T19:20:24.667584","TLE_LINE2":"2 52844  53.2166  61.8846 0001355  82.8005 277.3141 15.08847967 35365","MEAN_MOTION":"15.08847967","DECAY_DATE":null,"PERIAPSIS":"538.784","ARG_OF_PERICENTER":"82.8005","REF_FRAME":"TEME","INCLINATION":"53.2166","SITE":"AFETR","SEMIMAJOR_AXIS":"6917.856","OBJECT_NAME":"STARLINK-4208","MEAN_ANOMALY":"277.3141","FILE":"3772514","COUNTRY_CODE":"US","MEAN_MOTION_DOT":"0.00002007","MEAN_MOTION_DDOT":"0.0000000000000","OBJECT_TYPE":"PAYLOAD","ECCENTRICITY":"0.00013550"},{"PERIOD":"95.438","RCS_SIZE":"LARGE","OBJECT_ID":"2022-062R","CENTER_NAME":"EARTH","REV_AT_EPOCH":"3536","LAUNCH_DATE":"2022-06-17","APOAPSIS":"540.723","ELEMENT_SET_NO":"999","EPHEMERIS_TYPE":"0","CLASSIFICATION_TYPE":"U","NORAD_CAT_ID":"52845","TLE_LINE1":"1 52845U 22062R   23035.78840584  .00001028  00000-0  82704-4 0  9999","GP_ID":"224441761","RA_OF_ASC_NODE":"61.9658","MEAN_ELEMENT_THEORY":"SGP4","BSTAR":"0.00008270400000","TIME_SYSTEM":"UTC","FILE":"3772514","MEAN_ANOMALY":"277.0406","COUNTRY_CODE":"US","MEAN_MOTION_DOT":"0.00001028","MEAN_MOTION_DDOT":"0.0000000000000","OBJECT_TYPE":"PAYLOAD","ECCENTRICITY":"0.00014020","EPOCH":"2023-02-04T18:55:18.264576","MEAN_MOTION":"15.08837558","TLE_LINE2":"2 52845  53.2159  61.9658 0001402  83.0745 277.0406 15.08837558 35363","DECAY_DATE":null,"ARG_OF_PERICENTER":"83.0745","PERIAPSIS":"538.783","INCLINATION":"53.2159","REF_FRAME":"TEME","SITE":"AFETR","OBJECT_NAME":"STARLINK-4168","SEMIMAJOR_AXIS":"6917.888"},{"NORAD_CAT_ID":"52846","RA_OF_ASC_NODE":"61.9357","TLE_LINE1":"1 52846U 22062S   23035.79480743  .00002710  00000-0  18829-3 0  9993","GP_ID":"224442011","LAUNCH_DATE":"2022-06-17","APOAPSIS":"540.840","ELEMENT_SET_NO":"999","CLASSIFICATION_TYPE":"U","EPHEMERIS_TYPE":"0","MEAN_ELEMENT_THEORY":"SGP4","TIME_SYSTEM":"UTC","BSTAR":"0.00018829000000","PERIOD":"95.437","OBJECT_ID":"2022-062S","RCS_SIZE":"LARGE","REV_AT_EPOCH":"3536","CENTER_NAME":"EARTH","MEAN_MOTION":"15.08844853","TLE_LINE2":"2 52846  53.2165  61.9357 0001604  73.1856 286.9312 15.08844853 35365","PERIAPSIS":"538.621","DECAY_DATE":null,"ARG_OF_PERICENTER":"73.1856","REF_FRAME":"TEME","INCLINATION":"53.2165","EPOCH":"2023-02-04T19:04:31.361952","SEMIMAJOR_AXIS":"6917.866","OBJECT_NAME":"STARLINK-4212","SITE":"AFETR","MEAN_ANOMALY":"286.9312","FILE":"3772514","MEAN_MOTION_DOT":"0.00002710","COUNTRY_CODE":"US","ECCENTRICITY":"0.00016040","MEAN_MOTION_DDOT":"0.0000000000000","OBJECT_TYPE":"PAYLOAD"},{"SITE":"AFETR","SEMIMAJOR_AXIS":"6917.883","OBJECT_NAME":"STARLINK-4206","EPOCH":"2023-02-04T18:48:37.545696","TLE_LINE2":"2 52847  53.2144  61.9791 0001314  86.0919 274.0223 15.08839175 35366","MEAN_MOTION":"15.08839175","DECAY_DATE":null,"REF_FRAME":"TEME","PERIAPSIS":"538.839","INCLINATION":"53.2144","ARG_OF_PERICENTER":"86.0919","MEAN_MOTION_DDOT":"0.0000000000000","OBJECT_TYPE":"PAYLOAD","ECCENTRICITY":"0.00013140","MEAN_ANOMALY":"274.0223","FILE":"3772514","COUNTRY_CODE":"US","MEAN_MOTION_DOT":"0.00002133","MEAN_ELEMENT_THEORY":"SGP4","TIME_SYSTEM":"UTC","BSTAR":"0.00015209000000","APOAPSIS":"540.657","LAUNCH_DATE":"2022-06-17","ELEMENT_SET_NO":"999","EPHEMERIS_TYPE":"0","CLASSIFICATION_TYPE":"U","NORAD_CAT_ID":"52847","GP_ID":"224442259","TLE_LINE1":"1 52847U 22062T   23035.78376789  .00002133  00000-0  15209-3 0  9995","RA_OF_ASC_NODE":"61.9791","REV_AT_EPOCH":"3536","CENTER_NAME":"EARTH","PERIOD":"95.438","OBJECT_ID":"2022-062T","RCS_SIZE":"LARGE"},{"REV_AT_EPOCH":"3536","CENTER_NAME":"EARTH","RCS_SIZE":"LARGE","OBJECT_ID":"2022-062U","PERIOD":"95.438","BSTAR":"0.00006329800000","TIME_SYSTEM":"UTC","MEAN_ELEMENT_THEORY":"SGP4","RA_OF_ASC_NODE":"61.8985","TLE_LINE1":"1 52848U 22062U   23035.80216801  .00000720  00000-0  63298-4 0  9999","GP_ID":"224442995","NORAD_CAT_ID":"52848","ELEMENT_SET_NO":"999","CLASSIFICATION_TYPE":"U","EPHEMERIS_TYPE":"0","LAUNCH_DATE":"2022-06-17","APOAPSIS":"540.837","ECCENTRICITY":"0.00015780","OBJECT_TYPE":"PAYLOAD","MEAN_MOTION_DDOT":"0.0000000000000","COUNTRY_CODE":"US","MEAN_MOTION_DOT":"0.00000720","FILE":"3772514","MEAN_ANOMALY":"264.5470","OBJECT_NAME":"STARLINK-4202","SEMIMAJOR_AXIS":"6917.880","SITE":"AFETR","DECAY_DATE":null,"ARG_OF_PERICENTER":"95.5702","PERIAPSIS":"538.654","REF_FRAME":"TEME","INCLINATION":"53.2160","TLE_LINE2":"2 52848  53.2160  61.8985 0001578  95.5702 264.5470 15.08840055 35363","MEAN_MOTION":"15.08840055","EPOCH":"2023-02-04T19:15:07.316064"},{"NORAD_CAT_ID":"52849","TLE_LINE1":"1 52849U 22062V   23035.77732350  .00002372  00000-0  16700-3 0  9998","RA_OF_ASC_NODE":"52.0075","GP_ID":"224441262","LAUNCH_DATE":"2022-06-17","APOAPSIS":"540.560","ELEMENT_SET_NO":"999","EPHEMERIS_TYPE":"0","CLASSIFICATION_TYPE":"U","MEAN_ELEMENT_THEORY":"SGP4","TIME_SYSTEM":"UTC","BSTAR":"0.00016700000000","PERIOD":"95.437","OBJECT_ID":"2022-062V","RCS_SIZE":"LARGE","CENTER_NAME":"EARTH","REV_AT_EPOCH":"3549","TLE_LINE2":"2 52849  53.2158  52.0075 0001214  91.8333 268.2799 15.08848353 35497","MEAN_MOTION":"15.08848353","DECAY_DATE":null,"PERIAPSIS":"538.880","REF_FRAME":"TEME","ARG_OF_PERICENTER":"91.8333","INCLINATION":"53.2158","EPOCH":"2023-02-04T18:39:20.750400","SEMIMAJOR_AXIS":"6917.855","OBJECT_NAME":"STARLINK-4197","SITE":"AFETR","MEAN_ANOMALY":"268.2799","FILE":"3772514","COUNTRY_CODE":"US","MEAN_MOTION_DOT":"0.00002372","ECCENTRICITY":"0.00012140","MEAN_MOTION_DDOT":"0.0000000000000","OBJECT_TYPE":"PAYLOAD"},{"COUNTRY_CODE":"US","MEAN_MOTION_DOT":"0.00001932","FILE":"3772514","MEAN_ANOMALY":"273.0088","ECCENTRICITY":"0.00012030","OBJECT_TYPE":"PAYLOAD","MEAN_MOTION_DDOT":"0.0000000000000","DECAY_DATE":null,"ARG_OF_PERICENTER":"87.1042","PERIAPSIS":"538.908","INCLINATION":"53.2163","REF_FRAME":"TEME","MEAN_MOTION":"15.08841827","TLE_LINE2":"2 52850  53.2163  61.9682 0001203  87.1042 273.0088 15.08841827 35361","EPOCH":"2023-02-04T18:53:55.423392","OBJECT_NAME":"STARLINK-4187","SEMIMAJOR_AXIS":"6917.875","SITE":"AFETR","RCS_SIZE":"LARGE","OBJECT_ID":"2022-062W","PERIOD":"95.437","REV_AT_EPOCH":"3536","CENTER_NAME":"EARTH","TLE_LINE1":"1 52850U 22062W   23035.78744703  .00001932  00000-0  13942-3 0  9992","RA_OF_ASC_NODE":"61.9682","GP_ID":"224441511","NORAD_CAT_ID":"52850","ELEMENT_SET_NO":"999","CLASSIFICATION_TYPE":"U","EPHEMERIS_TYPE":"0","APOAPSIS":"540.572","LAUNCH_DATE":"2022-06-17","BSTAR":"0.00013942000000","TIME_SYSTEM":"UTC","MEAN_ELEMENT_THEORY":"SGP4"},{"SITE":"AFETR","OBJECT_NAME":"STARLINK-3809","SEMIMAJOR_AXIS":"6917.872","EPOCH":"2023-02-04T18:34:03.287424","TLE_LINE2":"2 52851  53.2170  52.0233 0001740  85.6466 274.4725 15.08842789 35497","MEAN_MOTION":"15.08842789","DECAY_DATE":null,"PERIAPSIS":"538.533","ARG_OF_PERICENTER":"85.6466","INCLINATION":"53.2170","REF_FRAME":"TEME","MEAN_MOTION_DDOT":"0.0000000000000","OBJECT_TYPE":"PAYLOAD","ECCENTRICITY":"0.00017400","FILE":"3772514","MEAN_ANOMALY":"274.4725","COUNTRY_CODE":"US","MEAN_MOTION_DOT":"0.00001279","MEAN_ELEMENT_THEORY":"SGP4","BSTAR":"0.00009840800000","TIME_SYSTEM":"UTC","LAUNCH_DATE":"2022-06-17","APOAPSIS":"540.941","ELEMENT_SET_NO":"999","EPHEMERIS_TYPE":"0","CLASSIFICATION_TYPE":"U","NORAD_CAT_ID":"52851","RA_OF_ASC_NODE":"52.0233","TLE_LINE1":"1 52851U 22062X   23035.77364916  .00001279  00000-0  98408-4 0  9991","GP_ID":"224442760","CENTER_NAME":"EARTH","REV_AT_EPOCH":"3549","PERIOD":"95.437","RCS_SIZE":"LARGE","OBJECT_ID":"2022-062X"}];
